[
    {
        "CCSDS_OMM_VERS": "3.0",
        "COMMENT": "GENERATED VIA SPACE-TRACK.ORG API",
        "CREATION_DATE": "2024-10-22T04:17:00",
        "ORIGINATOR": "18 SPCS",
        "OBJECT_NAME": "SL-16 R/B",
        "OBJECT_ID": "1988-039B",
        "CENTER_NAME": "EARTH",
        "REF_FRAME": "TEME",
        "TIME_SYSTEM": "UTC",
        "MEAN_ELEMENT_THEORY": "SGP4",
        "EPOCH": "2024-10-21T19:10:31.127232",
        "MEAN_MOTION": "14.19472042",
        "ECCENTRICITY": "0.00208340",
        "INCLINATION": "71.0157",
        "RA_OF_ASC_NODE": "53.9200",
        "ARG_OF_PERICENTER": "27.3980",
        "MEAN_ANOMALY": "332.8239",
        "EPHEMERIS_TYPE": "0",
        "CLASSIFICATION_TYPE": "U",
        "NORAD_CAT_ID": "19120",
        "ELEMENT_SET_NO": "999",
        "REV_AT_EPOCH": "88687",
        "BSTAR": "0.00017480000000",
        "MEAN_MOTION_DOT": "0.00000321",
        "MEAN_MOTION_DDOT": "0.0000000000000",
        "SEMIMAJOR_AXIS": "7205.276",
        "PERIOD": "101.446",
        "APOAPSIS": "842.152",
        "PERIAPSIS": "812.129",
        "OBJECT_TYPE": "ROCKET BODY",
        "RCS_SIZE": "LARGE",
        "COUNTRY_CODE": "CIS",
        "LAUNCH_DATE": "1988-05-15",
        "SITE": "TTMTR",
        "DECAY_DATE": null,
        "FILE": "4530606",
        "GP_ID": "271210748",
        "TLE_LINE0": "0 SL-16 R/B",
        "TLE_LINE1": "1 19120U 88039B   24295.79897138  .00000321  00000-0  17480-3 0  9994",
        "TLE_LINE2": "2 19120  71.0157  53.9200 0020834  27.3980 332.8239 14.19472042886872"
    },
    {
        "CCSDS_OMM_VERS": "3.0",
        "COMMENT": "GENERATED VIA SPACE-TRACK.ORG API",
        "CREATION_DATE": "2024-10-22T06:26:16",
        "ORIGINATOR": "18 SPCS",
        "OBJECT_NAME": "SL-16 R/B",
        "OBJECT_ID": "1988-102B",
        "CENTER_NAME": "EARTH",
        "REF_FRAME": "TEME",
        "TIME_SYSTEM": "UTC",
        "MEAN_ELEMENT_THEORY": "SGP4",
        "EPOCH": "2024-10-21T23:27:17.186400",
        "MEAN_MOTION": "14.16027260",
        "ECCENTRICITY": "0.00123980",
        "INCLINATION": "70.9973",
        "RA_OF_ASC_NODE": "131.2701",
        "ARG_OF_PERICENTER": "51.6965",
        "MEAN_ANOMALY": "308.5271",
        "EPHEMERIS_TYPE": "0",
        "CLASSIFICATION_TYPE": "U",
        "NORAD_CAT_ID": "19650",
        "ELEMENT_SET_NO": "999",
        "REV_AT_EPOCH": "85586",
        "BSTAR": "-0.00005763000000",
        "MEAN_MOTION_DOT": "-0.00000162",
        "MEAN_MOTION_DDOT": "0.0000000000000",
        "SEMIMAJOR_AXIS": "7216.957",
        "PERIOD": "101.693",
        "APOAPSIS": "847.769",
        "PERIAPSIS": "829.874",
        "OBJECT_TYPE": "ROCKET BODY",
        "RCS_SIZE": "LARGE",
        "COUNTRY_CODE": "CIS",
        "LAUNCH_DATE": "1988-11-23",
        "SITE": "TTMTR",
        "DECAY_DATE": null,
        "FILE": "4530628",
        "GP_ID": "271236438",
        "TLE_LINE0": "0 SL-16 R/B",
        "TLE_LINE1": "1 19650U 88102B   24295.97728225 -.00000162  00000-0 -57630-4 0  9990",
        "TLE_LINE2": "2 19650  70.9973 131.2701 0012398  51.6965 308.5271 14.16027260855865"
    },
    {
        "CCSDS_OMM_VERS": "3.0",
        "COMMENT": "GENERATED VIA SPACE-TRACK.ORG API",
        "CREATION_DATE": "2024-10-21T17:49:28",
        "ORIGINATOR": "18 SPCS",
        "OBJECT_NAME": "COSMOS 2082",
        "OBJECT_ID": "1990-046A",
        "CENTER_NAME": "EARTH",
        "REF_FRAME": "TEME",
        "TIME_SYSTEM": "UTC",
        "MEAN_ELEMENT_THEORY": "SGP4",
        "EPOCH": "2024-10-21T04:40:25.280256",
        "MEAN_MOTION": "14.14668893",
        "ECCENTRICITY": "0.00172670",
        "INCLINATION": "71.0433",
        "RA_OF_ASC_NODE": "357.5808",
        "ARG_OF_PERICENTER": "257.3663",
        "MEAN_ANOMALY": "102.5529",
        "EPHEMERIS_TYPE": "0",
        "CLASSIFICATION_TYPE": "U",
        "NORAD_CAT_ID": "20624",
        "ELEMENT_SET_NO": "999",
        "REV_AT_EPOCH": "77627",
        "BSTAR": "0.00009418600000",
        "MEAN_MOTION_DOT": "0.00000134",
        "MEAN_MOTION_DDOT": "0.0000000000000",
        "SEMIMAJOR_AXIS": "7221.576",
        "PERIOD": "101.791",
        "APOAPSIS": "855.910",
        "PERIAPSIS": "830.971",
        "OBJECT_TYPE": "PAYLOAD",
        "RCS_SIZE": "LARGE",
        "COUNTRY_CODE": "CIS",
        "LAUNCH_DATE": "1990-05-22",
        "SITE": "TTMTR",
        "DECAY_DATE": null,
        "FILE": "4530563",
        "GP_ID": "271181205",
        "TLE_LINE0": "0 COSMOS 2082",
        "TLE_LINE1": "1 20624U 90046A   24295.19473704  .00000134  00000-0  94186-4 0  9990",
        "TLE_LINE2": "2 20624  71.0433 357.5808 0017267 257.3663 102.5529 14.14668893776278"
    },
    {
        "CCSDS_OMM_VERS": "3.0",
        "COMMENT": "GENERATED VIA SPACE-TRACK.ORG API",
        "CREATION_DATE": "2024-10-22T07:06:17",
        "ORIGINATOR": "18 SPCS",
        "OBJECT_NAME": "SL-16 R/B",
        "OBJECT_ID": "1990-046B",
        "CENTER_NAME": "EARTH",
        "REF_FRAME": "TEME",
        "TIME_SYSTEM": "UTC",
        "MEAN_ELEMENT_THEORY": "SGP4",
        "EPOCH": "2024-10-22T03:24:19.068768",
        "MEAN_MOTION": "14.14885913",
        "ECCENTRICITY": "0.00147730",
        "INCLINATION": "70.9970",
        "RA_OF_ASC_NODE": "275.3584",
        "ARG_OF_PERICENTER": "341.1332",
        "MEAN_ANOMALY": "18.9241",
        "EPHEMERIS_TYPE": "0",
        "CLASSIFICATION_TYPE": "U",
        "NORAD_CAT_ID": "20625",
        "ELEMENT_SET_NO": "999",
        "REV_AT_EPOCH": "77741",
        "BSTAR": "0.00012084000000",
        "MEAN_MOTION_DOT": "0.00000186",
        "MEAN_MOTION_DDOT": "0.0000000000000",
        "SEMIMAJOR_AXIS": "7220.837",
        "PERIOD": "101.775",
        "APOAPSIS": "853.370",
        "PERIAPSIS": "832.035",
        "OBJECT_TYPE": "ROCKET BODY",
        "RCS_SIZE": "LARGE",
        "COUNTRY_CODE": "CIS",
        "LAUNCH_DATE": "1990-05-22",
        "SITE": "TTMTR",
        "DECAY_DATE": null,
        "FILE": "4530773",
        "GP_ID": "271239719",
        "TLE_LINE0": "0 SL-16 R/B",
        "TLE_LINE1": "1 20625U 90046B   24296.14188737  .00000186  00000-0  12084-3 0  9999",
        "TLE_LINE2": "2 20625  70.9970 275.3584 0014773 341.1332  18.9241 14.14885913777417"
    },
    {
        "CCSDS_OMM_VERS": "3.0",
        "COMMENT": "GENERATED VIA SPACE-TRACK.ORG API",
        "CREATION_DATE": "2024-10-22T04:17:00",
        "ORIGINATOR": "18 SPCS",
        "OBJECT_NAME": "SL-8 R/B",
        "OBJECT_ID": "1991-007B",
        "CENTER_NAME": "EARTH",
        "REF_FRAME": "TEME",
        "TIME_SYSTEM": "UTC",
        "MEAN_ELEMENT_THEORY": "SGP4",
        "EPOCH": "2024-10-21T18:29:45.989088",
        "MEAN_MOTION": "13.76572714",
        "ECCENTRICITY": "0.00219210",
        "INCLINATION": "82.9241",
        "RA_OF_ASC_NODE": "39.8866",
        "ARG_OF_PERICENTER": "93.4234",
        "MEAN_ANOMALY": "266.9431",
        "EPHEMERIS_TYPE": "0",
        "CLASSIFICATION_TYPE": "U",
        "NORAD_CAT_ID": "21090",
        "ELEMENT_SET_NO": "999",
        "REV_AT_EPOCH": "69288",
        "BSTAR": "0.00013885000000",
        "MEAN_MOTION_DOT": "0.00000152",
        "MEAN_MOTION_DDOT": "0.0000000000000",
        "SEMIMAJOR_AXIS": "7354.205",
        "PERIOD": "104.608",
        "APOAPSIS": "992.191",
        "PERIAPSIS": "959.949",
        "OBJECT_TYPE": "ROCKET BODY",
        "RCS_SIZE": "LARGE",
        "COUNTRY_CODE": "CIS",
        "LAUNCH_DATE": "1991-02-05",
        "SITE": "PKMTR",
        "DECAY_DATE": null,
        "FILE": "4530606",
        "GP_ID": "271211539",
        "TLE_LINE0": "0 SL-8 R/B",
        "TLE_LINE1": "1 21090U 91007B   24295.77067117  .00000152  00000-0  13885-3 0  9993",
        "TLE_LINE2": "2 21090  82.9241  39.8866 0021921  93.4234 266.9431 13.76572714692887"
    },
    {
        "CCSDS_OMM_VERS": "3.0",
        "COMMENT": "GENERATED VIA SPACE-TRACK.ORG API",
        "CREATION_DATE": "2024-10-21T17:49:28",
        "ORIGINATOR": "18 SPCS",
        "OBJECT_NAME": "SL-16 R/B",
        "OBJECT_ID": "1992-076B",
        "CENTER_NAME": "EARTH",
        "REF_FRAME": "TEME",
        "TIME_SYSTEM": "UTC",
        "MEAN_ELEMENT_THEORY": "SGP4",
        "EPOCH": "2024-10-21T02:52:28.941888",
        "MEAN_MOTION": "14.16720052",
        "ECCENTRICITY": "0.00115940",
        "INCLINATION": "70.9998",
        "RA_OF_ASC_NODE": "171.1473",
        "ARG_OF_PERICENTER": "153.3621",
        "MEAN_ANOMALY": "8.1358",
        "EPHEMERIS_TYPE": "0",
        "CLASSIFICATION_TYPE": "U",
        "NORAD_CAT_ID": "22220",
        "ELEMENT_SET_NO": "999",
        "REV_AT_EPOCH": "65036",
        "BSTAR": "0.00000828510000",
        "MEAN_MOTION_DOT": "-0.00000031",
        "MEAN_MOTION_DDOT": "0.0000000000000",
        "SEMIMAJOR_AXIS": "7214.604",
        "PERIOD": "101.643",
        "APOAPSIS": "844.833",
        "PERIAPSIS": "828.104",
        "OBJECT_TYPE": "ROCKET BODY",
        "RCS_SIZE": "LARGE",
        "COUNTRY_CODE": "CIS",
        "LAUNCH_DATE": "1992-11-17",
        "SITE": "TTMTR",
        "DECAY_DATE": null,
        "FILE": "4530563",
        "GP_ID": "271182042",
        "TLE_LINE0": "0 SL-16 R/B",
        "TLE_LINE1": "1 22220U 92076B   24295.11977942 -.00000031  00000-0  82851-5 0  9998",
        "TLE_LINE2": "2 22220  70.9998 171.1473 0011594 153.3621   8.1358 14.16720052650360"
    }
]